NORAD_CAT_ID,OBJECT_NAME,OBJECT_TYPE,EPOCH,MEAN_MOTION,ECCENTRICITY,INCLINATION,RA_OF_ASC_NODE,ARG_OF_PERICENTER,MEAN_ANOMALY,BSTAR,MEAN_MOTION_DOT,MEAN_MOTION_DDOT,TLE_LINE0,TLE_LINE1,TLE_LINE2,SEMIMAJOR_AXIS,PERIOD,APOGEE,PERIGEE,DECAYED
56804.0,STARLINK-6069,PAYLOAD,2024-01-07 13:43:22,14.98322948,0.0002946,70.0002,161.5976,267.9953,92.0868,0.00011952,1.333e-05,0.0,0 STARLINK-6069,1 56804U 23078AP  24007.57178935  .00001333  00000-0  11952-3 0  9992,2 56804  70.0002 161.5976 0002946 267.9953  92.0868 14.98322948 35192,6950.215,96.107,574.127,570.032,0.0
56804.0,STARLINK-6069,PAYLOAD,2024-01-07 20:07:54,14.98332185,0.000296,70.0003,160.9247,268.4397,91.6423,-7.0064e-06,-1.77e-06,0.0,0 STARLINK-6069,1 56804U 23078AP  24007.83882757 -.00000177  00000-0 -70064-5 0  9993,2 56804  70.0003 160.9247 0002960 268.4397  91.6423 14.98332185 34826,6950.186,96.107,574.108,569.994,0.0
56804.0,STARLINK-6069,PAYLOAD,2024-01-08 13:45:23,14.98328702,0.0002876,70.0004,159.0723,265.8719,94.2111,1.9626e-05,1.41e-06,0.0,0 STARLINK-6069,1 56804U 23078AP  24008.57318739  .00000141  00000-0  19626-4 0  9994,2 56804  70.0004 159.0723 0002876 265.8719  94.2111 14.98328702 35341,6950.197,96.107,574.061,570.063,0.0
56804.0,STARLINK-6069,PAYLOAD,2024-01-08 20:09:55,14.98331,0.000288,70.0004,158.3992,266.3526,93.7304,2.3809e-05,1.91e-06,0.0,0 STARLINK-6069,1 56804U 23078AP  24008.84022578  .00000191  00000-0  23809-4 0  9990,2 56804  70.0004 158.3992 0002880 266.3526  93.7304 14.98331000 35385,6950.19,96.107,574.056,570.053,0.0
56804.0,STARLINK-6069,PAYLOAD,2024-01-09 13:47:24,14.98329366,0.0002826,70.0006,156.5478,268.11,91.9736,-1.4337e-06,-1.1e-06,0.0,0 STARLINK-6069,1 56804U 23078AP  24009.57458719 -.00000110  00000-0 -14337-5 0  9991,2 56804  70.0006 156.5478 0002826 268.1100  91.9736 14.98329366 35497,6950.195,96.107,574.024,570.096,0.0
56804.0,STARLINK-6069,PAYLOAD,2024-01-09 20:11:56,14.9833126,0.0002802,70.0007,155.8743,267.1928,92.8911,1.823e-05,1.25e-06,0.0,0 STARLINK-6069,1 56804U 23078AP  24009.84162524  .00000125  00000-0  18230-4 0  9996,2 56804  70.0007 155.8743 0002802 267.1928  92.8911 14.98331260 35532,6950.189,96.107,574.001,570.107,0.0
56804.0,STARLINK-6069,PAYLOAD,2024-01-10 10:37:09,14.98328927,0.0002721,70.0008,154.3597,264.4515,95.6334,-5.9065e-06,-1.63e-06,0.0,0 STARLINK-6069,1 56804U 23078AP  24010.44246680 -.00000163  00000-0 -59065-5 0  9996,2 56804  70.0008 154.3597 0002721 264.4515  95.6334 14.98328927 35622,6950.196,96.107,573.952,570.17,0.0
56804.0,STARLINK-6069,PAYLOAD,2024-01-11 12:15:18,14.9833059,0.0002751,70.0007,151.6666,265.9433,94.1412,6.9745e-06,-1e-07,0.0,0 STARLINK-6069,1 56804U 23078AP  24011.51062503 -.00000010  00000-0  69745-5 0  9991,2 56804  70.0007 151.6666 0002751 265.9433  94.1412 14.98330590 35378,6950.191,96.107,573.968,570.144,0.0
56804.0,STARLINK-6069,PAYLOAD,2024-01-11 13:51:26,14.98330878,0.0002746,70.0007,151.4984,265.932,94.1525,1.093e-05,3.7e-07,0.0,0 STARLINK-6069,1 56804U 23078AP  24011.57738470  .00000037  00000-0  10930-4 0  9999,2 56804  70.0007 151.4984 0002746 265.9320  94.1525 14.98330878 35798,6950.19,96.107,573.964,570.147,0.0
56804.0,STARLINK-6069,PAYLOAD,2024-01-11 18:39:50,14.98331383,0.000277,70.0006,150.9933,267.0353,93.0489,1.3322e-05,6.6e-07,0.0,0 STARLINK-6069,1 56804U 23078AP  24011.77766410  .00000066  00000-0  13322-4 0  9996,2 56804  70.0006 150.9933 0002770 267.0353  93.0489 14.98331383 35824,6950.189,96.107,573.979,570.128,0.0
56804.0,STARLINK-6069,PAYLOAD,2024-01-12 12:17:19,14.98321276,0.0002627,70.0006,149.1416,260.1911,99.8951,-6.335e-05,-8.49e-06,0.0,0 STARLINK-6069,1 56804U 23078AP  24012.51203387 -.00000849  00000-0 -63350-4 0  9995,2 56804  70.0006 149.1416 0002627 260.1911  99.8951 14.98321276 35520,6950.22,96.108,573.911,570.259,0.0
56804.0,STARLINK-6069,PAYLOAD,2024-01-12 13:53:27,14.98321192,0.0002633,70.0007,148.9733,260.3554,99.7308,-6.6547e-05,-8.87e-06,0.0,0 STARLINK-6069,1 56804U 23078AP  24012.57879434 -.00000887  00000-0 -66547-4 0  9996,2 56804  70.0007 148.9733 0002633 260.3554  99.7308 14.98321192 35940,6950.22,96.108,573.915,570.255,0.0
56804.0,STARLINK-6069,PAYLOAD,2024-01-12 18:41:52,14.98321006,0.0002671,70.0007,148.4686,262.358,97.7276,-6.1727e-05,-8.29e-06,0.0,0 STARLINK-6069,1 56804U 23078AP  24012.77907550 -.00000829  00000-0 -61727-4 0  9990,2 56804  70.0007 148.4686 0002671 262.3580  97.7276 14.98321006 35974,6950.221,96.108,573.942,570.229,0.0
56804.0,STARLINK-6069,PAYLOAD,2024-01-13 12:19:19,14.98333801,0.0002858,70.0003,146.6167,267.8845,92.1987,1.4214e-05,7.7e-07,0.0,0 STARLINK-6069,1 56804U 23078AP  24013.51342574  .00000077  00000-0  14214-4 0  9994,2 56804  70.0003 146.6167 0002858 267.8845  92.1987 14.98333801 35676,6950.181,96.107,574.032,570.06,0.0
56804.0,STARLINK-6069,PAYLOAD,2024-01-13 13:55:28,14.98334158,0.0002852,70.0004,146.4485,267.9376,92.1457,1.9734e-05,1.43e-06,0.0,0 STARLINK-6069,1 56804U 23078AP  24013.58018527  .00000143  00000-0  19734-4 0  9995,2 56804  70.0004 146.4485 0002852 267.9376  92.1457 14.98334158 36097,6950.18,96.107,574.027,570.063,0.0
56804.0,STARLINK-6069,PAYLOAD,2024-01-14 12:21:21,14.98325319,0.0002519,70.0014,144.0935,253.9987,106.0894,6.7231e-05,7.09e-06,0.0,0 STARLINK-6069,1 56804U 23078AP  24014.51482873  .00000709  00000-0  67231-4 0  9991,2 56804  70.0014 144.0935 0002519 253.9987 106.0894 14.98325319 35824,6950.207,96.107,573.823,570.322,0.0
56804.0,STARLINK-6069,PAYLOAD,2024-01-14 13:57:29,14.98324991,0.0002513,70.0013,143.9248,255.8487,104.2393,6.6593e-05,7.02e-06,0.0,0 STARLINK-6069,1 56804U 23078AP  24014.58158927  .00000702  00000-0  66593-4 0  9991,2 56804  70.0013 143.9248 0002513 255.8487 104.2393 14.98324991 36244,6950.208,96.107,573.82,570.327,0.0
56804.0,STARLINK-6069,PAYLOAD,2024-01-14 18:45:53,14.98324394,0.000268,70.0017,143.4204,261.4832,98.6023,5.4063e-05,5.52e-06,0.0,0 STARLINK-6069,1 56804U 23078AP  24014.78187056  .00000552  00000-0  54063-4 0  9990,2 56804  70.0017 143.4204 0002680 261.4832  98.6023 14.98324394 36273,6950.21,96.107,573.938,570.213,0.0
56804.0,STARLINK-6069,PAYLOAD,2024-01-15 12:23:22,14.98328558,0.0002673,70.001,141.5682,259.8602,100.2256,-5.5551e-05,-7.56e-06,0.0,0 STARLINK-6069,1 56804U 23078AP  24015.51623100 -.00000756  00000-0 -55551-4 0  9998,2 56804  70.0010 141.5682 0002673 259.8602 100.2256 14.98328558 35973,6950.197,96.107,573.92,570.205,0.0
56804.0,STARLINK-6069,PAYLOAD,2024-01-15 17:11:46,14.98331203,0.0002605,70.0012,141.0636,256.912,103.1748,-2.1881e-05,-3.54e-06,0.0,0 STARLINK-6069,1 56804U 23078AP  24015.71650820 -.00000354  00000-0 -21881-4 0  9992,2 56804  70.0012 141.0636 0002605 256.9120 103.1748 14.98331203 36416,6950.189,96.107,573.865,570.244,0.0
56804.0,STARLINK-6069,PAYLOAD,2024-01-16 12:25:23,14.98328627,0.0002586,70.0012,139.0438,253.791,106.2964,9.4751e-06,2e-07,0.0,0 STARLINK-6069,1 56804U 23078AP  24016.51762822  .00000020  00000-0  94751-5 0  9992,2 56804  70.0012 139.0438 0002586 253.7910 106.2964 14.98328627 36121,6950.197,96.107,573.859,570.265,0.0
56804.0,STARLINK-6069,PAYLOAD,2024-01-16 14:01:31,14.98328494,0.0002564,70.0011,138.8753,250.3287,109.7596,2.6259e-05,2.2e-06,0.0,0 STARLINK-6069,1 56804U 23078AP  24016.58438775  .00000220  00000-0  26259-4 0  9995,2 56804  70.0011 138.8753 0002564 250.3287 109.7596 14.98328494 36540,6950.198,96.107,573.845,570.281,0.0
56804.0,STARLINK-6069,PAYLOAD,2024-01-16 18:49:55,14.98330706,0.000258,70.0012,138.3703,252.4209,107.6668,3.9862e-05,3.83e-06,0.0,0 STARLINK-6069,1 56804U 23078AP  24016.78466600  .00000383  00000-0  39862-4 0  9999,2 56804  70.0012 138.3703 0002580 252.4209 107.6668 14.98330706 36575,6950.191,96.107,573.849,570.263,0.0
56804.0,STARLINK-6069,PAYLOAD,2024-01-17 12:27:24,14.98328696,0.0002598,70.0012,136.5191,250.789,109.2988,1.2154e-06,-7.8e-07,0.0,0 STARLINK-6069,1 56804U 23078AP  24017.51902802 -.00000078  00000-0  12154-5 0  9998,2 56804  70.0012 136.5191 0002598 250.7890 109.2988 14.98328696 36277,6950.197,96.107,573.868,570.256,0.0
56804.0,STARLINK-6069,PAYLOAD,2024-01-17 14:03:32,14.98328352,0.0002599,70.0012,136.3508,250.3965,109.6914,-2.6011e-06,-1.24e-06,0.0,0 STARLINK-6069,1 56804U 23078AP  24017.58578838 -.00000124  00000-0 -26011-5 0  9993,2 56804  70.0012 136.3508 0002599 250.3965 109.6914 14.98328352 36695,6950.198,96.107,573.869,570.257,0.0
56804.0,STARLINK-6069,PAYLOAD,2024-01-17 17:15:48,14.98328703,0.0002599,70.0013,136.0144,251.2483,108.8395,-3.9123e-07,-9.8e-07,0.0,0 STARLINK-6069,1 56804U 23078AP  24017.71930823 -.00000098  00000-0 -39123-6 0  9993,2 56804  70.0013 136.0144 0002599 251.2483 108.8395 14.98328703 36711,6950.197,96.107,573.868,570.256,0.0
56804.0,STARLINK-6069,PAYLOAD,2024-01-18 12:29:24,14.98332651,0.0002643,70.0013,133.9942,252.2563,107.8308,1.8001e-05,1.22e-06,0.0,0 STARLINK-6069,1 56804U 23078AP  24018.52042407  .00000122  00000-0  18001-4 0  9991,2 56804  70.0013 133.9942 0002643 252.2563 107.8308 14.98332651 36421,6950.185,96.107,573.887,570.213,0.0
56804.0,STARLINK-6069,PAYLOAD,2024-01-18 14:05:32,14.98332196,0.0002651,70.0013,133.8258,252.5923,107.4947,1.1967e-05,5e-07,0.0,0 STARLINK-6069,1 56804U 23078AP  24018.58718443  .00000050  00000-0  11967-4 0  9991,2 56804  70.0013 133.8258 0002651 252.5923 107.4947 14.98332196 36847,6950.186,96.107,573.894,570.209,0.0
56804.0,STARLINK-6069,PAYLOAD,2024-01-18 17:17:47,14.98386753,0.0002971,70.0013,133.4897,249.9333,110.1506,-0.00089117,-0.00010726,0.0,0 STARLINK-6069,1 56804U 23078AP  24018.72068941 -.00010726  00000-0 -89117-3 0  9992,2 56804  70.0013 133.4897 0002971 249.9333 110.1506 14.98386753 36459,6950.017,96.103,573.947,569.818,0.0
56804.0,STARLINK-6069,PAYLOAD,2024-01-19 10:55:17,14.98325718,0.0002587,70.0015,131.6392,250.9516,109.1363,-2.3695e-05,-3.76e-06,0.0,0 STARLINK-6069,1 56804U 23078AP  24019.45506918 -.00000376  00000-0 -23695-4 0  9994,2 56804  70.0015 131.6392 0002587 250.9516 109.1363 14.98325718 36564,6950.206,96.107,573.869,570.273,0.0
